NORAD_CAT_ID,OBJECT_NAME,OBJECT_TYPE,EPOCH,MEAN_MOTION,ECCENTRICITY,INCLINATION,RA_OF_ASC_NODE,ARG_OF_PERICENTER,MEAN_ANOMALY,BSTAR,MEAN_MOTION_DOT,MEAN_MOTION_DDOT,TLE_LINE0,TLE_LINE1,TLE_LINE2,SEMIMAJOR_AXIS,PERIOD,APOGEE,PERIGEE,DECAYED
53827.0,STARLINK-4764,PAYLOAD,2024-03-29 10:02:18,15.0884282,0.0001045,53.2153,252.7173,310.2597,49.8304,4.3894e-05,4.11e-06,0.0,0 STARLINK-4764,1 53827U 22114K   24089.41827033  .00000411  00000-0  43894-4 0  9994,2 53827  53.2153 252.7173 0001045 310.2597  49.8304 15.08842820 85065,6917.872,95.437,540.46,539.014,0.0
53827.0,STARLINK-4764,PAYLOAD,2024-03-29 21:10:00,15.08846693,0.0001622,53.2164,250.6359,91.1834,268.9344,6.0647e-05,6.77e-06,0.0,0 STARLINK-4764,1 53827U 22114K   24089.88194577  .00000677  00000-0  60647-4 0  9994,2 53827  53.2164 250.6359 0001622  91.1834 268.9344 15.08846693 85677,6917.86,95.437,540.847,538.603,0.0
53827.0,STARLINK-4764,PAYLOAD,2024-03-30 03:31:32,15.08847019,0.0001086,53.2137,249.4426,67.2088,292.9019,5.1336e-05,5.29e-06,0.0,0 STARLINK-4764,1 53827U 22114K   24090.14690430  .00000529  00000-0  51336-4 0  9995,2 53827  53.2137 249.4426 0001086  67.2088 292.9019 15.08847019 85171,6917.859,95.437,540.475,538.973,0.0
53827.0,STARLINK-4764,PAYLOAD,2024-03-30 19:25:24,15.08842356,0.0001514,53.2219,246.4713,70.8812,289.2344,-3.5529e-05,-8.53e-06,0.0,0 STARLINK-4764,1 53827U 22114K   24090.80931195 -.00000853  00000-0 -35529-4 0  9992,2 53827  53.2219 246.4713 0001514  70.8812 289.2344 15.08842356 85279,6917.873,95.437,540.786,538.691,0.0
53827.0,STARLINK-4764,PAYLOAD,2024-03-31 09:43:52,15.08873035,0.0001796,53.2216,243.7954,84.4863,275.6334,-0.00042955,-7.124e-05,0.0,0 STARLINK-4764,1 53827U 22114K   24091.40546870 -.00007124  00000-0 -42955-3 0  9999,2 53827  53.2216 243.7954 0001796  84.4863 275.6334 15.08873035 85368,6917.779,95.435,540.887,538.402,0.0
53827.0,STARLINK-4764,PAYLOAD,2024-03-31 14:30:01,15.08849288,0.0002257,53.217,242.9043,88.8668,271.2582,-9.0617e-06,-4.33e-06,0.0,0 STARLINK-4764,1 53827U 22114K   24091.60418663 -.00000433  00000-0 -90617-5 0  9995,2 53827  53.2170 242.9043 0002257  88.8668 271.2582 15.08849288 85934,6917.852,95.437,541.278,538.156,0.0
53827.0,STARLINK-4764,PAYLOAD,2024-03-31 17:40:47,15.08849742,0.0001495,53.217,242.3087,80.4183,279.6978,9.3756e-05,1.205e-05,0.0,0 STARLINK-4764,1 53827U 22114K   24091.73666242  .00001205  00000-0  93756-4 0  9999,2 53827  53.2170 242.3087 0001495  80.4183 279.6978 15.08849742 85957,6917.851,95.437,540.75,538.681,0.0
53827.0,STARLINK-4764,PAYLOAD,2024-04-01 03:13:07,15.08838027,0.0001643,53.2184,240.5244,85.2482,274.8698,6.929e-05,8.15e-06,0.0,0 STARLINK-4764,1 53827U 22114K   24092.13411065  .00000815  00000-0  69290-4 0  9997,2 53827  53.2184 240.5244 0001643  85.2482 274.8698 15.08838027 85474,6917.886,95.438,540.888,538.615,0.0
53827.0,STARLINK-4764,PAYLOAD,2024-04-01 14:20:49,15.08831345,0.0001237,53.2168,238.4452,85.3057,274.8077,3.5014e-05,2.69e-06,0.0,0 STARLINK-4764,1 53827U 22114K   24092.59779606  .00000269  00000-0  35014-4 0  9995,2 53827  53.2168 238.4452 0001237  85.3057 274.8077 15.08831345 86086,6917.907,95.438,540.628,538.916,0.0
53827.0,STARLINK-4764,PAYLOAD,2024-04-02 09:25:26,15.08837267,0.0001373,53.2148,234.8736,91.8244,268.2906,6.0559e-05,6.76e-06,0.0,0 STARLINK-4764,1 53827U 22114K   24093.39267341  .00000676  00000-0  60559-4 0  9996,2 53827  53.2148 234.8736 0001373  91.8244 268.2906 15.08837267 85660,6917.889,95.438,540.704,538.804,0.0
53827.0,STARLINK-4764,PAYLOAD,2024-04-02 12:36:13,15.08838997,0.0001413,53.2147,234.279,91.3089,268.8065,5.7731e-05,6.31e-06,0.0,0 STARLINK-4764,1 53827U 22114K   24093.52515231  .00000631  00000-0  57731-4 0  9994,2 53827  53.2147 234.2790 0001413  91.3089 268.8065 15.08838997 86226,6917.883,95.438,540.726,538.771,0.0
53827.0,STARLINK-4764,PAYLOAD,2024-04-02 15:46:59,15.08845041,0.0001554,53.2157,233.6842,92.5027,267.6143,6.8924e-05,8.09e-06,0.0,0 STARLINK-4764,1 53827U 22114K   24093.65762824  .00000809  00000-0  68924-4 0  9993,2 53827  53.2157 233.6842 0001554  92.5027 267.6143 15.08845041 85703,6917.865,95.437,540.805,538.655,0.0
53827.0,STARLINK-4764,PAYLOAD,2024-04-03 12:26:59,15.08849593,0.0001523,53.217,229.8178,97.734,262.3825,-8.0865e-05,-1.575e-05,0.0,0 STARLINK-4764,1 53827U 22114K   24094.51874806 -.00001575  00000-0 -80865-4 0  9994,2 53827  53.2170 229.8178 0001523  97.7340 262.3825 15.08849593 86377,6917.851,95.437,540.77,538.662,0.0
53827.0,STARLINK-4764,PAYLOAD,2024-04-03 18:48:32,15.08845412,0.0001285,53.2156,228.629,92.9586,267.1553,0.00010658,1.409e-05,0.0,0 STARLINK-4764,1 53827U 22114K   24094.78370624  .00001409  00000-0  10658-3 0  9998,2 53827  53.2156 228.6290 0001285  92.9586 267.1553 15.08845412 85878,6917.864,95.437,540.618,538.84,0.0
53827.0,STARLINK-4764,PAYLOAD,2024-04-04 13:53:10,15.08834269,0.0001373,53.2172,225.061,98.0687,262.0461,-1.112e-05,-4.65e-06,0.0,0 STARLINK-4764,1 53827U 22114K   24095.57859773 -.00000465  00000-0 -11120-4 0  9992,2 53827  53.2172 225.0610 0001373  98.0687 262.0461 15.08834269 85993,6917.898,95.438,540.713,538.813,0.0
53827.0,STARLINK-4764,PAYLOAD,2024-04-04 15:28:33,15.08835542,0.0001305,53.2166,224.7637,97.0035,263.1105,1.0904e-05,-1.14e-06,0.0,0 STARLINK-4764,1 53827U 22114K   24095.64483629 -.00000114  00000-0  10904-4 0  9992,2 53827  53.2166 224.7637 0001305  97.0035 263.1105 15.08835542 86546,6917.894,95.438,540.662,538.856,0.0
53827.0,STARLINK-4764,PAYLOAD,2024-04-05 01:00:52,15.08840534,0.0001244,53.2171,222.9797,93.5515,266.5619,-1.4191e-05,-5.14e-06,0.0,0 STARLINK-4764,1 53827U 22114K   24096.04227372 -.00000514  00000-0 -14191-4 0  9995,2 53827  53.2171 222.9797 0001244  93.5515 266.5619 15.08840534 86066,6917.879,95.438,540.604,538.883,0.0
53827.0,STARLINK-4764,PAYLOAD,2024-04-05 15:19:20,15.08845584,0.0001299,53.217,220.3071,97.101,263.013,3.4105e-05,2.55e-06,0.0,0 STARLINK-4764,1 53827U 22114K   24096.63843046  .00000255  00000-0  34105-4 0  9999,2 53827  53.2170 220.3071 0001299  97.1010 263.0130 15.08845584 86691,6917.863,95.437,540.627,538.83,0.0
53827.0,STARLINK-4764,PAYLOAD,2024-04-05 18:30:06,15.08850506,0.0001238,53.2167,219.709,89.9168,270.1966,7.4425e-05,8.97e-06,0.0,0 STARLINK-4764,1 53827U 22114K   24096.77090547  .00000897  00000-0  74425-4 0  9995,2 53827  53.2167 219.7090 0001238  89.9168 270.1966 15.08850506 86175,6917.848,95.437,540.57,538.857,0.0
53827.0,STARLINK-4764,PAYLOAD,2024-04-06 00:51:40,15.08831053,0.0001681,53.2155,218.5177,84.1534,275.965,-9.6479e-06,-4.42e-06,0.0,0 STARLINK-4764,1 53827U 22114K   24097.03588180 -.00000442  00000-0 -96479-5 0  9992,2 53827  53.2155 218.5177 0001681  84.1534 275.9650 15.08831053 86215,6917.908,95.438,540.936,538.61,0.0
53827.0,STARLINK-4764,PAYLOAD,2024-04-06 15:10:08,15.08834468,0.0001249,53.2169,215.8446,95.7422,264.3713,5.3407e-05,5.62e-06,0.0,0 STARLINK-4764,1 53827U 22114K   24097.63203946  .00000562  00000-0  53407-4 0  9996,2 53827  53.2169 215.8446 0001249  95.7422 264.3713 15.08834468 86847,6917.897,95.438,540.626,538.898,0.0
53827.0,STARLINK-4764,PAYLOAD,2024-04-07 07:03:59,15.08835243,0.0001222,53.2161,212.871,89.5282,270.585,2.2937e-05,7.7e-07,0.0,0 STARLINK-4764,1 53827U 22114K   24098.29444256  .00000077  00000-0  22937-4 0  9995,2 53827  53.2161 212.8710 0001222  89.5282 270.5850 15.08835243 86401,6917.895,95.438,540.605,538.915,0.0
53827.0,STARLINK-4764,PAYLOAD,2024-04-07 16:36:18,15.08838079,0.0001433,53.2167,211.0881,86.4593,273.6563,-8.9783e-07,-3.02e-06,0.0,0 STARLINK-4764,1 53827U 22114K   24098.69188299 -.00000302  00000-0 -89783-6 0  9998,2 53827  53.2167 211.0881 0001433  86.4593 273.6563 15.08838079 87004,6917.886,95.438,540.743,538.76,0.0
53827.0,STARLINK-4764,PAYLOAD,2024-04-08 13:16:19,15.08840179,0.0001734,53.2141,207.2216,82.205,277.9139,0.00011913,1.608e-05,0.0,0 STARLINK-4764,1 53827U 22114K   24099.55299991  .00001608  00000-0  11913-3 0  9991,2 53827  53.2141 207.2216 0001734  82.2050 277.9139 15.08840179 86594,6917.88,95.438,540.944,538.545,0.0
53827.0,STARLINK-4764,PAYLOAD,2024-04-09 00:24:01,15.08821008,0.0001858,53.2156,205.1409,83.0355,277.0848,0.00041441,6.31e-05,0.0,0 STARLINK-4764,1 53827U 22114K   24100.01668502  .00006310  00000-0  41441-3 0  9997,2 53827  53.2156 205.1409 0001858  83.0355 277.0848 15.08821008 87202,6917.938,95.439,541.089,538.518,0.0
53827.0,STARLINK-4764,PAYLOAD,2024-04-09 13:07:05,15.0884607,0.00019,53.2154,202.7618,79.6138,280.5068,0.00011388,1.525e-05,0.0,0 STARLINK-4764,1 53827U 22114K   24100.54659499  .00001525  00000-0  11388-3 0  9990,2 53827  53.2154 202.7618 0001900  79.6138 280.5068 15.08846070 86740,6917.862,95.437,541.041,538.412,0.0
53827.0,STARLINK-4764,PAYLOAD,2024-04-10 12:57:52,15.08850963,0.0001458,53.217,198.2984,95.2825,264.8334,2.373e-05,9e-07,0.0,0 STARLINK-4764,1 53827U 22114K   24101.54018997  .00000090  00000-0  23730-4 0  9994,2 53827  53.2170 198.2984 0001458  95.2825 264.8334 15.08850963 87432,6917.847,95.437,540.721,538.703,0.0
53827.0,STARLINK-4764,PAYLOAD,2024-04-11 12:48:39,15.08841763,0.0001305,53.2163,193.8356,100.0609,260.053,-2.1063e-05,-6.23e-06,0.0,0 STARLINK-4764,1 53827U 22114K   24102.53379528 -.00000623  00000-0 -21063-4 0  9995,2 53827  53.2163 193.8356 0001305 100.0609 260.0530 15.08841763 87045,6917.875,95.437,540.643,538.837,0.0
53827.0,STARLINK-4764,PAYLOAD,2024-04-12 12:39:27,15.08841496,0.0001306,53.2174,189.3783,97.5474,262.5666,-1.0139e-06,-3.04e-06,0.0,0 STARLINK-4764,1 53827U 22114K   24103.52739645 -.00000304  00000-0 -10139-5 0  9994,2 53827  53.2174 189.3783 0001306  97.5474 262.5666 15.08841496 87738,6917.876,95.437,540.644,538.837,0.0
53827.0,STARLINK-4764,PAYLOAD,2024-04-13 04:33:18,15.08833658,0.0001347,53.2182,186.409,101.9786,258.1358,0.00011297,1.51e-05,0.0,0 STARLINK-4764,1 53827U 22114K   24104.18979920  .00001510  00000-0  11297-3 0  9991,2 53827  53.2182 186.4090 0001347 101.9786 258.1358 15.08833658 87298,6917.9,95.438,540.697,538.833,0.0
